OBJECT_NAME,OBJECT_ID,EPOCH,MEAN_MOTION,ECCENTRICITY,INCLINATION,RA_OF_ASC_NODE,ARG_OF_PERICENTER,MEAN_ANOMALY,EPHEMERIS_TYPE,CLASSIFICATION_TYPE,NORAD_CAT_ID,ELEMENT_SET_NO,REV_AT_EPOCH,BSTAR,MEAN_MOTION_DOT,MEAN_MOTION_DDOT
ONEWEB-0112,2021-025K,2024-08-15T08:45:38.057184,13.13471477,.000184,87.8876,93.7220,79.5083,280.6253,0,U,48051,999,16554,-.12562E-3,-.33E-6,0
ONEWEB-0156,2021-025L,2024-08-15T21:47:12.853824,13.13471460,.0001793,87.8878,93.6132,80.2838,279.8494,0,U,48052,999,16558,.30893E-3,.126E-5,0
ONEWEB-0161,2021-025M,2024-08-15T21:08:22.282944,13.13469610,.0001671,87.8887,93.6267,85.8197,274.3123,0,U,48053,999,16551,-.58314E-3,-.2E-5,0
ONEWEB-0158,2021-025N,2024-08-15T22:03:13.121568,13.13470703,.0001829,87.8880,93.6089,75.6027,284.5305,0,U,48054,999,16564,.79906E-3,.305E-5,0
ONEWEB-0157,2021-025P,2024-08-15T20:47:48.181632,13.13469589,.0001931,87.8879,93.6336,83.9381,276.1968,0,U,48055,999,16557,.11806E-3,.56E-6,0
ONEWEB-0162,2021-025Q,2024-08-15T21:44:55.794912,13.13470303,.0001843,87.8877,93.6205,79.7951,280.3386,0,U,48056,999,16555,.21234E-3,.9E-6,0
ONEWEB-0155,2021-025R,2024-08-15T22:14:39.398496,13.13471021,.000169,87.8880,93.6279,88.8355,271.2968,0,U,48057,999,16569,.96045E-3,.364E-5,0
ONEWEB-0149,2021-025S,2024-08-15T20:54:39.494880,13.13469844,.0002019,87.8878,93.6349,78.8514,281.2842,0,U,48058,999,16549,-.10136E-3,-.24E-6,0
ONEWEB-0148,2021-025T,2024-08-15T21:54:04.877280,13.13469148,.0002423,87.8882,93.6390,83.6133,276.5272,0,U,48059,999,16562,.34511E-3,.139E-5,0
ONEWEB-0160,2021-025U,2024-08-15T22:16:55.634880,13.13470209,.0001618,87.8880,93.6320,47.7113,312.4153,0,U,48060,999,16557,.85729E-3,.326E-5,0
ONEWEB-0163,2021-025V,2024-08-15T21:56:21.469632,13.13468864,.000157,87.8872,93.6258,88.9609,271.1700,0,U,48061,999,16569,.95256E-3,.361E-5,0
ONEWEB-0159,2021-025W,2024-08-15T21:40:21.861984,13.13469606,.0001929,87.8879,93.6107,83.8044,276.3304,0,U,48062,999,16561,-.32435E-3,-.106E-5,0
ONEWEB-0164,2021-025X,2024-08-16T02:44:18.477600,13.13466847,.0001777,87.8879,93.5788,79.9129,280.2200,0,U,48063,999,16563,.72266E-3,.277E-5,0
ONEWEB-0167,2021-025Y,2024-08-15T21:57:29.869920,13.13483487,.000176,87.8880,93.6312,88.9508,271.1823,0,U,48064,999,16558,-.62227E-2,-.226E-4,0
ONEWEB-0166,2021-025Z,2024-08-15T20:38:39.552864,13.13470174,.0001983,87.8876,93.6232,80.1054,280.0298,0,U,48065,999,16565,.6467E-3,.249E-5,0
ONEWEB-0151,2021-025AA,2024-08-15T20:40:56.626464,13.13468484,.0001626,87.8879,93.6378,81.1775,278.9539,0,U,48066,999,16559,.60696E-3,.234E-5,0
ONEWEB-0170,2021-025AB,2024-08-16T04:11:08.912544,13.13470051,.0001189,87.8879,93.5780,69.6105,290.5152,0,U,48067,999,16559,.14651E-3,.66E-6,0
ONEWEB-0168,2021-025AC,2024-08-15T20:31:48.192096,13.13470599,.0001809,87.8883,93.6133,82.4898,277.6436,0,U,48068,999,16556,.93982E-3,.356E-5,0
ONEWEB-0173,2021-025AD,2024-08-15T22:10:04.114272,13.13471002,.00017,87.8883,93.6095,96.6529,263.4794,0,U,48069,999,16581,.95223E-3,.361E-5,0
ONEWEB-0171,2021-025AE,2024-08-15T08:25:03.219744,13.13472172,.0001661,87.8883,93.7594,83.3704,276.7614,0,U,48070,999,16555,-.62167E-3,-.214E-5,0
ONEWEB-0172,2021-025AF,2024-08-15T20:43:13.524672,13.13470122,.0001648,87.8884,93.6238,85.3926,274.7391,0,U,48071,999,16651,.51362E-3,.2E-5,0
ONEWEB-0174,2021-025AG,2024-08-15T22:07:47.400960,13.13470845,.0001915,87.8883,93.6264,80.3229,279.8117,0,U,48072,999,16584,.86575E-3,.329E-5,0
ONEWEB-0175,2021-025AH,2024-08-15T20:59:13.187616,13.13469843,.0001392,87.8875,93.6207,81.0887,279.0400,0,U,48073,999,16549,-.30411E-3,-.98E-6,0
ONEWEB-0177,2021-025AJ,2024-08-15T21:17:30.539328,13.13468913,.0001974,87.8877,93.6271,91.5397,268.5959,0,U,48074,999,16568,-.84243E-3,-.295E-5,0
ONEWEB-0178,2021-025AK,2024-08-15T21:42:51.112800,13.13470178,.0001851,87.8885,93.6455,86.2155,273.9185,0,U,48075,999,16573,.55634E-4,.33E-6,0
ONEWEB-0108,2021-025AL,2024-08-15T20:45:30.631104,13.13470213,.0001925,87.8881,93.6287,74.9272,285.2070,0,U,48076,999,16565,.36609E-3,.146E-5,0
ONEWEB-0169,2021-025AM,2024-08-16T03:00:18.108576,13.13470436,.0001935,87.8878,93.5881,75.2235,284.9109,0,U,48077,999,16558,-.422E-3,-.141E-5,0
GAOFEN-12 02,2021-026A,2024-08-13T20:55:18.074208,14.80417658,.0002627,97.9534,218.0903,2.3850,357.7374,0,U,48079,999,18228,.35465E-3,.2657E-4,0
BEESAT-8,2021-022AP,2024-08-14T17:02:48.540192,15.37105371,.0007566,97.4712,130.5475,272.3060,87.7318,0,U,48085,999,18685,.14199E-2,.51814E-3,0
STARLINK-2048,2021-027A,2024-08-15T22:31:01.896960,15.06422076,.000117,53.0527,139.0980,93.7114,266.4009,0,U,48092,999,18743,.826E-3,.1205E-3,0
STARLINK-2404,2021-027B,2024-08-16T05:34:58.158048,15.06419884,.0001401,53.0519,202.7021,96.3659,263.7489,0,U,48093,999,18617,.8505E-3,.12416E-3,0
STARLINK-2412,2021-027C,2024-08-16T04:24:36.188352,15.06413785,.0001518,53.0524,212.7181,87.3002,272.8160,0,U,48094,999,18603,.60363E-3,.8724E-4,0
STARLINK-2414,2021-027D,2024-08-16T04:35:13.215552,15.06409904,.0001331,53.0516,212.6836,86.2285,273.8856,0,U,48095,999,18603,.36913E-3,.5222E-4,0
STARLINK-2417,2021-027E,2024-08-16T05:33:36.160128,15.06398905,.0001433,53.0542,212.5020,96.4359,263.6793,0,U,48096,999,18603,.36597E-3,.5174E-4,0
STARLINK-2418,2021-027F,2024-08-15T14:44:33.742752,15.06409994,.0001461,53.0526,195.2757,87.4588,272.6568,0,U,48097,999,18622,.78077E-3,.1137E-3,0
STARLINK-2421,2021-027G,2024-08-15T15:46:56.041248,15.06398105,.0001526,53.0534,205.0791,86.9331,273.1832,0,U,48098,999,18648,.29919E-3,.4177E-4,0
STARLINK-2428,2021-027H,2024-08-16T04:13:59.144736,15.06414912,.0001526,53.0519,212.7493,93.1713,266.9451,0,U,48099,999,18602,.70445E-3,.10231E-3,0
STARLINK-2430,2021-027J,2024-08-16T04:53:48.579072,15.06381813,.0001135,53.0535,192.6255,85.5829,274.5290,0,U,48100,999,18631,-.19326E-4,-.569E-5,0
STARLINK-2436,2021-027K,2024-08-16T04:57:48.378816,15.06387482,.000133,53.0529,202.8180,95.6889,264.4252,0,U,48101,999,18617,-.56267E-4,-.1119E-4,0
STARLINK-2437,2021-027L,2024-08-15T15:11:06.499968,15.06402959,.0001838,53.0536,195.1913,86.8082,273.3117,0,U,48102,999,18662,.27565E-3,.3827E-4,0
STARLINK-2439,2021-027N,2024-08-16T04:23:56.297472,15.06409601,.0001437,53.0521,197.7182,94.4936,265.6217,0,U,48104,999,18624,.59833E-3,.8644E-4,0
STARLINK-2440,2021-027P,2024-08-16T02:10:35.164128,15.06437034,.000116,53.0525,143.1382,124.9525,235.1573,0,U,48105,999,18699,.24314E-2,.36157E-3,0
STARLINK-2442,2021-027Q,2024-08-15T14:39:14.989824,15.06392647,.0001414,53.0527,195.3014,92.2699,267.8452,0,U,48106,999,18622,.30441E-3,.4255E-4,0
STARLINK-2443,2021-027R,2024-08-15T05:27:15.859296,15.06389987,.0001509,53.0525,197.0106,97.4209,262.6952,0,U,48107,999,18616,.75874E-3,.11035E-3,0
STARLINK-2447,2021-027U,2024-08-15T15:41:38.233536,15.06397988,.0001551,53.0521,205.0967,99.0747,261.0418,0,U,48110,999,18649,.78162E-3,.11379E-3,0
STARLINK-2448,2021-027V,2024-08-15T15:31:00.452928,15.06403600,.000146,53.0522,205.1023,90.8239,269.2918,0,U,48111,999,18649,.70706E-3,.10267E-3,0
STARLINK-2449,2021-027W,2024-08-16T05:40:56.122752,15.06403262,.0001249,53.0515,217.6435,81.5031,278.6099,0,U,48112,999,18596,.99662E-3,.14596E-3,0
STARLINK-2450,2021-027X,2024-08-16T05:44:13.597728,15.06404540,.0001457,53.0525,212.4680,94.0761,266.0395,0,U,48113,999,18603,.51099E-3,.7339E-4,0
STARLINK-2452,2021-027Z,2024-08-16T05:29:37.747968,15.06405464,.0001442,53.0524,202.5261,92.1877,267.9277,0,U,48115,999,18617,.39277E-3,.5574E-4,0
STARLINK-2454,2021-027AA,2024-08-15T05:45:50.400288,15.06390450,.000144,53.0524,216.9543,92.1479,267.9675,0,U,48116,999,18628,.9662E-3,.14136E-3,0
STARLINK-2455,2021-027AB,2024-08-16T04:57:43.889472,15.06421375,.000153,53.0529,192.6034,88.7009,271.4155,0,U,48117,999,18631,.51577E-3,.7414E-4,0
STARLINK-2458,2021-027AC,2024-08-15T14:55:10.801056,15.06406671,.0001401,53.0521,195.2402,90.3501,269.7648,0,U,48118,999,18622,.7357E-3,.10696E-3,0
STARLINK-2459,2021-027AD,2024-08-16T05:08:20.839776,15.06423166,.0001429,53.0515,192.5710,102.0499,258.0650,0,U,48119,999,18631,.12584E-2,.18524E-3,0
STARLINK-2460,2021-027AE,2024-08-16T05:17:41.794368,15.06422085,.0001378,53.0513,212.5523,96.0828,264.0318,0,U,48120,999,18603,.10682E-2,.15674E-3,0
STARLINK-2462,2021-027AF,2024-08-16T04:36:32.534208,15.06410059,.000173,53.0518,202.6822,100.8924,259.2259,0,U,48121,999,18617,.31565E-3,.4424E-4,0
STARLINK-2463,2021-027AG,2024-08-15T15:50:14.402688,15.06402108,.0001465,53.0535,200.0424,89.1041,271.0116,0,U,48122,999,18656,.26271E-3,.3634E-4,0
STARLINK-2464,2021-027AH,2024-08-15T14:28:38.491392,15.06397829,.0001382,53.0533,195.3250,94.1982,265.9165,0,U,48123,999,18621,.89968E-5,-.147E-5,0
STARLINK-2465,2021-027AJ,2024-08-15T16:02:51.989856,15.06389927,.0001502,53.0523,205.0288,86.1405,273.9756,0,U,48124,999,18648,.30617E-3,.4281E-4,0
STARLINK-2466,2021-027AK,2024-08-15T16:22:49.109376,15.06388746,.0001429,53.0523,215.2094,94.9705,265.1447,0,U,48125,999,18635,.57176E-3,.8242E-4,0
STARLINK-2467,2021-027AL,2024-08-15T15:16:25.410144,15.06405339,.0001618,53.0525,195.1768,97.6040,262.5133,0,U,48126,999,18663,.88963E-3,.12996E-3,0
STARLINK-2468,2021-027AM,2024-08-16T05:22:59.288448,15.06441016,.0001621,53.0520,212.5345,74.6399,285.4769,0,U,48127,999,18603,.10891E-2,.15996E-3,0
STARLINK-2469,2021-027AN,2024-08-15T22:32:59.360352,15.06402632,.0001075,53.0528,143.9045,86.7573,273.3539,0,U,48128,999,18736,.35672E-3,.5036E-4,0
STARLINK-2471,2021-027AP,2024-08-16T05:12:23.427648,15.06407219,.0001375,53.0518,212.5677,97.7260,262.3885,0,U,48129,999,18603,.69247E-3,.1005E-3,0
STARLINK-2472,2021-027AQ,2024-08-16T04:37:19.678368,15.06413578,.0001389,53.0528,218.2293,92.7029,267.4119,0,U,48130,999,18595,.94632E-3,.13847E-3,0
STARLINK-2473,2021-027AR,2024-08-16T03:50:06.329472,15.06421627,.0001407,53.0513,192.8227,94.3162,265.7988,0,U,48131,999,18630,.91159E-3,.1333E-3,0
STARLINK-2474,2021-027AS,2024-08-16T04:56:28.095936,15.06416435,.0000911,53.0514,212.6203,80.0117,280.0974,0,U,48132,999,18603,.13669E-2,.20146E-3,0
STARLINK-2475,2021-027AT,2024-08-16T04:51:08.689824,15.06400650,.0001359,53.0524,212.6346,97.6077,262.5067,0,U,48133,999,18603,.20694E-3,.2802E-4,0
